TERRASAR-X              
1 31698U 07026A   26061.55096637  .00001962  00000+0  96617-4 0  9998
2 31698  97.4467  70.7747 0001802  76.7712 283.3724 15.19148840 37032
WORLDVIEW-1 (WV-1)      
1 32060U 07041A   26061.81004786  .00010441  00000+0  42880-3 0  9996
2 32060  97.3826 183.0903 0002820 154.6623 205.4753 15.24384572 26679
YAOGAN-3                
1 32289U 07055A   26061.86076880  .00001107  00000+0  11959-3 0  9995
2 32289  97.8283  92.7581 0001781  84.8733 275.2688 14.90318764990026
COSMO-SKYMED 2          
1 32376U 07059A   26061.83195988  .00000702  00000+0  94683-4 0  9990
2 32376  97.8859 246.9674 0001315  82.4968 277.6395 14.82154958986249
RADARSAT-2              
1 32382U 07061A   26061.82201073 -.00000062  00000+0 -71767-5 0  9992
2 32382  98.5812  70.2596 0001180  84.4940 275.6377 14.29980647950754
CARTOSAT-2A             
1 32783U 08021A   26061.84089734  .00001250  00000+0  17538-3 0  9996
2 32783  97.7797 114.1141 0013263  96.3318 263.9405 14.79085670963081
HUANJING 1A (HJ-1A)     
1 33320U 08041A   26061.89121310  .00001214  00000+0  15260-3 0  9998
2 33320  97.6618  51.8989 0020292 124.2890 236.0250 14.83690235942645
HUANJING 1B (HJ-1B)     
1 33321U 08041B   26061.88167553  .00001741  00000+0  21766-3 0  9990
2 33321  97.6468  55.3717 0036525 169.8558 190.3401 14.83083028942656
GEOEYE 1                
1 33331U 08042A   26061.78718183  .00000673  00000+0  13515-3 0  9998
2 33331  98.1220 137.0638 0004401  46.5462 313.6106 14.64756809934579
THEOS                   
1 33396U 08049A   26061.86181382  .00000179  00000+0  10408-3 0  9999
2 33396  98.5724 122.5360 0001013  88.7647 271.3646 14.20115587902874
COSMO-SKYMED 3          
1 33412U 08054A   26061.87700507  .00007059  00000+0  48523-3 0  9994
2 33412  97.8425 278.6467 0014789 267.2308  92.7225 15.06172674940938
YAOGAN-4                
1 33446U 08061A   26061.77020872  .00001661  00000+0  21090-3 0  9991
2 33446  97.9243 356.1272 0015698  60.0888 300.1883 14.82952036929891
GOSAT (IBUKI)           
1 33492U 09002A   26061.77439779  .00000268  00000+0  55801-4 0  9998
2 33492  98.0765 174.2640 0001428  86.9895 273.1473 14.67545230915854
DEIMOS-1                
1 35681U 09041A   26061.82929039  .00001189  00000+0  18333-3 0  9993
2 35681  97.7237 223.7515 0001928 128.6454 231.4928 14.75103231891201
DUBAISAT-1              
1 35682U 09041B   26061.78879491  .00001559  00000+0  23970-3 0  9999
2 35682  97.9863 196.3337 0011446  56.9719 303.2588 14.74882767889416
OCEANSAT-2              
1 35931U 09051A   26061.89930139  .00000003  00000+0  27366-4 0  9993
2 35931  98.2269  59.3949 0016938 171.3727 188.7734 13.99635752864469
WORLDVIEW-2 (WV-2)      
1 35946U 09055A   26061.76828002  .00000189  00000+0  77064-4 0  9999
2 35946  98.4707 136.7323 0004669 163.5191 196.6149 14.37907110860351
