[{"OBJECT_NAME":"TERRASAR-X","OBJECT_ID":"2007-026A","EPOCH":"2026-03-02T13:13:23.494368","MEAN_MOTION":15.1914884,"ECCENTRICITY":0.0001802,"INCLINATION":97.4467,"RA_OF_ASC_NODE":70.7747,"ARG_OF_PERICENTER":76.7712,"MEAN_ANOMALY":283.3724,"EPHEMERIS_TYPE":0,"CLASSIFICATION_TYPE":"U","NORAD_CAT_ID":31698,"ELEMENT_SET_NO":999,"REV_AT_EPOCH":3703,"BSTAR":9.6617e-5,"MEAN_MOTION_DOT":1.962e-5,"MEAN_MOTION_DDOT":0},{"OBJECT_NAME":"WORLDVIEW-1 (WV-1)","OBJECT_ID":"2007-041A","EPOCH":"2026-03-02T19:26:28.135104","MEAN_MOTION":15.24384572,"ECCENTRICITY":0.000282,"INCLINATION":97.3826,"RA_OF_ASC_NODE":183.0903,"ARG_OF_PERICENTER":154.6623,"MEAN_ANOMALY":205.4753,"EPHEMERIS_TYPE":0,"CLASSIFICATION_TYPE":"U","NORAD_CAT_ID":32060,"ELEMENT_SET_NO":999,"REV_AT_EPOCH":2667,"BSTAR":0.0004288,"MEAN_MOTION_DOT":0.00010441,"MEAN_MOTION_DDOT":0},{"OBJECT_NAME":"YAOGAN-3","OBJECT_ID":"2007-055A","EPOCH":"2026-03-02T20:39:30.424320","MEAN_MOTION":14.90318764,"ECCENTRICITY":0.0001781,"INCLINATION":97.8283,"RA_OF_ASC_NODE":92.7581,"ARG_OF_PERICENTER":84.8733,"MEAN_ANOMALY":275.2688,"EPHEMERIS_TYPE":0,"CLASSIFICATION_TYPE":"U","NORAD_CAT_ID":32289,"ELEMENT_SET_NO":999,"REV_AT_EPOCH":99002,"BSTAR":0.00011959,"MEAN_MOTION_DOT":1.107e-5,"MEAN_MOTION_DDOT":0},{"OBJECT_NAME":"COSMO-SKYMED 2","OBJECT_ID":"2007-059A","EPOCH":"2026-03-02T19:58:01.333632","MEAN_MOTION":14.82154958,"ECCENTRICITY":0.0001315,"INCLINATION":97.8859,"RA_OF_ASC_NODE":246.9674,"ARG_OF_PERICENTER":82.4968,"MEAN_ANOMALY":277.6395,"EPHEMERIS_TYPE":0,"CLASSIFICATION_TYPE":"U","NORAD_CAT_ID":32376,"ELEMENT_SET_NO":999,"REV_AT_EPOCH":98624,"BSTAR":9.4683e-5,"MEAN_MOTION_DOT":7.02e-6,"MEAN_MOTION_DDOT":0},{"OBJECT_NAME":"RADARSAT-2","OBJECT_ID":"2007-061A","EPOCH":"2026-03-02T19:43:41.727072","MEAN_MOTION":14.29980647,"ECCENTRICITY":0.000118,"INCLINATION":98.5812,"RA_OF_ASC_NODE":70.2596,"ARG_OF_PERICENTER":84.494,"MEAN_ANOMALY":275.6377,"EPHEMERIS_TYPE":0,"CLASSIFICATION_TYPE":"U","NORAD_CAT_ID":32382,"ELEMENT_SET_NO":999,"REV_AT_EPOCH":95075,"BSTAR":-7.1767e-6,"MEAN_MOTION_DOT":-6.2e-7,"MEAN_MOTION_DDOT":0},{"OBJECT_NAME":"CARTOSAT-2A","OBJECT_ID":"2008-021A","EPOCH":"2026-03-02T20:10:53.530176","MEAN_MOTION":14.7908567,"ECCENTRICITY":0.0013263,"INCLINATION":97.7797,"RA_OF_ASC_NODE":114.1141,"ARG_OF_PERICENTER":96.3318,"MEAN_ANOMALY":263.9405,"EPHEMERIS_TYPE":0,"CLASSIFICATION_TYPE":"U","NORAD_CAT_ID":32783,"ELEMENT_SET_NO":999,"REV_AT_EPOCH":96308,"BSTAR":0.00017538,"MEAN_MOTION_DOT":1.25e-5,"MEAN_MOTION_DDOT":0},{"OBJECT_NAME":"HUANJING 1A (HJ-1A)","OBJECT_ID":"2008-041A","EPOCH":"2026-03-02T21:23:20.811840","MEAN_MOTION":14.83690235,"ECCENTRICITY":0.0020292,"INCLINATION":97.6618,"RA_OF_ASC_NODE":51.8989,"ARG_OF_PERICENTER":124.289,"MEAN_ANOMALY":236.025,"EPHEMERIS_TYPE":0,"CLASSIFICATION_TYPE":"U","NORAD_CAT_ID":33320,"ELEMENT_SET_NO":999,"REV_AT_EPOCH":94264,"BSTAR":0.0001526,"MEAN_MOTION_DOT":1.214e-5,"MEAN_MOTION_DDOT":0},{"OBJECT_NAME":"HUANJING 1B (HJ-1B)","OBJECT_ID":"2008-041B","EPOCH":"2026-03-02T21:09:36.765792","MEAN_MOTION":14.83083028,"ECCENTRICITY":0.0036525,"INCLINATION":97.6468,"RA_OF_ASC_NODE":55.3717,"ARG_OF_PERICENTER":169.8558,"MEAN_ANOMALY":190.3401,"EPHEMERIS_TYPE":0,"CLASSIFICATION_TYPE":"U","NORAD_CAT_ID":33321,"ELEMENT_SET_NO":999,"REV_AT_EPOCH":94265,"BSTAR":0.00021766,"MEAN_MOTION_DOT":1.741e-5,"MEAN_MOTION_DDOT":0},{"OBJECT_NAME":"GEOEYE 1","OBJECT_ID":"2008-042A","EPOCH":"2026-03-02T18:53:32.510112","MEAN_MOTION":14.64756809,"ECCENTRICITY":0.0004401,"INCLINATION":98.122,"RA_OF_ASC_NODE":137.0638,"ARG_OF_PERICENTER":46.5462,"MEAN_ANOMALY":313.6106,"EPHEMERIS_TYPE":0,"CLASSIFICATION_TYPE":"U","NORAD_CAT_ID":33331,"ELEMENT_SET_NO":999,"REV_AT_EPOCH":93457,"BSTAR":0.00013515,"MEAN_MOTION_DOT":6.73e-6,"MEAN_MOTION_DDOT":0},{"OBJECT_NAME":"THEOS","OBJECT_ID":"2008-049A","EPOCH":"2026-03-02T20:41:00.714048","MEAN_MOTION":14.20115587,"ECCENTRICITY":0.0001013,"INCLINATION":98.5724,"RA_OF_ASC_NODE":122.536,"ARG_OF_PERICENTER":88.7647,"MEAN_ANOMALY":271.3646,"EPHEMERIS_TYPE":0,"CLASSIFICATION_TYPE":"U","NORAD_CAT_ID":33396,"ELEMENT_SET_NO":999,"REV_AT_EPOCH":90287,"BSTAR":0.00010408,"MEAN_MOTION_DOT":1.79e-6,"MEAN_MOTION_DDOT":0},{"OBJECT_NAME":"COSMO-SKYMED 3","OBJECT_ID":"2008-054A","EPOCH":"2026-03-02T21:02:53.238048","MEAN_MOTION":15.06172674,"ECCENTRICITY":0.0014789,"INCLINATION":97.8425,"RA_OF_ASC_NODE":278.6467,"ARG_OF_PERICENTER":267.2308,"MEAN_ANOMALY":92.7225,"EPHEMERIS_TYPE":0,"CLASSIFICATION_TYPE":"U","NORAD_CAT_ID":33412,"ELEMENT_SET_NO":999,"REV_AT_EPOCH":94093,"BSTAR":0.00048523,"MEAN_MOTION_DOT":7.059e-5,"MEAN_MOTION_DDOT":0},{"OBJECT_NAME":"YAOGAN-4","OBJECT_ID":"2008-061A","EPOCH":"2026-03-02T18:29:06.033408","MEAN_MOTION":14.82952036,"ECCENTRICITY":0.0015698,"INCLINATION":97.9243,"RA_OF_ASC_NODE":356.1272,"ARG_OF_PERICENTER":60.0888,"MEAN_ANOMALY":300.1883,"EPHEMERIS_TYPE":0,"CLASSIFICATION_TYPE":"U","NORAD_CAT_ID":33446,"ELEMENT_SET_NO":999,"REV_AT_EPOCH":92989,"BSTAR":0.0002109,"MEAN_MOTION_DOT":1.661e-5,"MEAN_MOTION_DDOT":0},{"OBJECT_NAME":"GOSAT (IBUKI)","OBJECT_ID":"2009-002A","EPOCH":"2026-03-02T18:35:07.969056","MEAN_MOTION":14.6754523,"ECCENTRICITY":0.0001428,"INCLINATION":98.0765,"RA_OF_ASC_NODE":174.264,"ARG_OF_PERICENTER":86.9895,"MEAN_ANOMALY":273.1473,"EPHEMERIS_TYPE":0,"CLASSIFICATION_TYPE":"U","NORAD_CAT_ID":33492,"ELEMENT_SET_NO":999,"REV_AT_EPOCH":91585,"BSTAR":5.5801e-5,"MEAN_MOTION_DOT":2.68e-6,"MEAN_MOTION_DDOT":0},{"OBJECT_NAME":"DEIMOS-1","OBJECT_ID":"2009-041A","EPOCH":"2026-03-02T19:54:10.689696","MEAN_MOTION":14.75103231,"ECCENTRICITY":0.0001928,"INCLINATION":97.7237,"RA_OF_ASC_NODE":223.7515,"ARG_OF_PERICENTER":128.6454,"MEAN_ANOMALY":231.4928,"EPHEMERIS_TYPE":0,"CLASSIFICATION_TYPE":"U","NORAD_CAT_ID":35681,"ELEMENT_SET_NO":999,"REV_AT_EPOCH":89120,"BSTAR":0.00018333,"MEAN_MOTION_DOT":1.189e-5,"MEAN_MOTION_DDOT":0},{"OBJECT_NAME":"DUBAISAT-1","OBJECT_ID":"2009-041B","EPOCH":"2026-03-02T18:55:51.880224","MEAN_MOTION":14.74882767,"ECCENTRICITY":0.0011446,"INCLINATION":97.9863,"RA_OF_ASC_NODE":196.3337,"ARG_OF_PERICENTER":56.9719,"MEAN_ANOMALY":303.2588,"EPHEMERIS_TYPE":0,"CLASSIFICATION_TYPE":"U","NORAD_CAT_ID":35682,"ELEMENT_SET_NO":999,"REV_AT_EPOCH":88941,"BSTAR":0.0002397,"MEAN_MOTION_DOT":1.559e-5,"MEAN_MOTION_DDOT":0},{"OBJECT_NAME":"OCEANSAT-2","OBJECT_ID":"2009-051A","EPOCH":"2026-03-02T21:34:59.640096","MEAN_MOTION":13.99635752,"ECCENTRICITY":0.0016938,"INCLINATION":98.2269,"RA_OF_ASC_NODE":59.3949,"ARG_OF_PERICENTER":171.3727,"MEAN_ANOMALY":188.7734,"EPHEMERIS_TYPE":0,"CLASSIFICATION_TYPE":"U","NORAD_CAT_ID":35931,"ELEMENT_SET_NO":999,"REV_AT_EPOCH":86446,"BSTAR":2.7366e-5,"MEAN_MOTION_DOT":3.0e-8,"MEAN_MOTION_DDOT":0},{"OBJECT_NAME":"WORLDVIEW-2 (WV-2)","OBJECT_ID":"2009-055A","EPOCH":"2026-03-02T18:26:19.393728","MEAN_MOTION":14.3790711,"ECCENTRICITY":0.0004669,"INCLINATION":98.4707,"RA_OF_ASC_NODE":136.7323,"ARG_OF_PERICENTER":163.5191,"MEAN_ANOMALY":196.6149,"EPHEMERIS_TYPE":0,"CLASSIFICATION_TYPE":"U","NORAD_CAT_ID":35946,"ELEMENT_SET_NO":999,"REV_AT_EPOCH":86035,"BSTAR":7.7064e-5,"MEAN_MOTION_DOT":1.89e-6,"MEAN_MOTION_DDOT":0}]
